APSTAR 6D               
1 45863U 20045A   20262.43591134 -.00000330  00000-0  10000-3 0  9990
2 45863   0.0315 178.3643 0001378   4.0810 106.7698  1.00267063   823
KOREASAT 116            
1 45920U 20048A   20262.53709017 -.00000377  00000-0  00000-0 0  9996
2 45920   0.0125 124.0866 0000854  57.9599 125.4452  1.00270170   605
